{
  "type": "FeatureCollection",
  "features": [
    {
      "type": "Feature",
      "properties": {
        "norad_id": 34614,
        "name": "COSMOS 2251 DEB",
        "group": "cosmos-2251-debris",
        "lat": 9.405771227651705,
        "lon": -2.100501753024856,
        "alt_km": 701.5986824219463,
        "timestamp": "2025-12-06T11:28:11.457025+00:00",
        "meta_object_name": "COSMOS 2251 DEB",
        "meta_object_id": "1993-036WK",
        "meta_epoch": "2025-12-04T20:43:04.520064",
        "meta_mean_motion": 14.17169673,
        "meta_eccentricity": 0.0197875,
        "meta_inclination": 73.8788,
        "meta_ra_of_asc_node": 358.0566,
        "meta_arg_of_pericenter": 353.1012,
        "meta_mean_anomaly": 61.3249,
        "meta_ephemeris_type": 0,
        "meta_classification_type": "U",
        "meta_norad_cat_id": 34614,
        "meta_element_set_no": 999,
        "meta_rev_at_epoch": 84655,
        "meta_bstar": 0.0098527,
        "meta_mean_motion_dot": 0.00024126,
        "meta_mean_motion_ddot": 0,
        "tle_line1": "1 34614U 93036WK  25338.86324676  .00024126  00000+0  98527-2 0  9999",
        "tle_line2": "2 34614  73.8788 358.0566 0197875 353.1012  61.3249 14.17169673846554"
      },
      "geometry": {
        "type": "Point",
        "coordinates": [
          -2.100501753024856,
          9.405771227651705
        ]
      }
    },
    {
      "type": "Feature",
      "properties": {
        "norad_id": 34615,
        "name": "COSMOS 2251 DEB",
        "group": "cosmos-2251-debris",
        "lat": -60.885682372351496,
        "lon": -86.81155112990274,
        "alt_km": 1017.44197757651,
        "timestamp": "2025-12-06T11:28:11.457035+00:00",
        "meta_object_name": "COSMOS 2251 DEB",
        "meta_object_id": "1993-036WL",
        "meta_epoch": "2025-12-04T16:18:53.961408",
        "meta_mean_motion": 13.52198359,
        "meta_eccentricity": 0.0402058,
        "meta_inclination": 74.0053,
        "meta_ra_of_asc_node": 307.0689,
        "meta_arg_of_pericenter": 215.9786,
        "meta_mean_anomaly": 324.3399,
        "meta_ephemeris_type": 0,
        "meta_classification_type": "U",
        "meta_norad_cat_id": 34615,
        "meta_element_set_no": 999,
        "meta_rev_at_epoch": 82706,
        "meta_bstar": 0.00019137,
        "meta_mean_motion_dot": 1.87e-06,
        "meta_mean_motion_ddot": 0,
        "tle_line1": "1 34615U 93036WL  25338.67979122  .00000187  00000+0  19137-3 0  9993",
        "tle_line2": "2 34615  74.0053 307.0689 0402058 215.9786 324.3399 13.52198359827062"
      },
      "geometry": {
        "type": "Point",
        "coordinates": [
          -86.81155112990274,
          -60.885682372351496
        ]
      }
    },
    {
      "type": "Feature",
      "properties": {
        "norad_id": 34619,
        "name": "COSMOS 2251 DEB",
        "group": "cosmos-2251-debris",
        "lat": -5.1233847567651365,
        "lon": 33.44195761718321,
        "alt_km": 717.5448169369838,
        "timestamp": "2025-12-06T11:28:11.457045+00:00",
        "meta_object_name": "COSMOS 2251 DEB",
        "meta_object_id": "1993-036WQ",
        "meta_epoch": "2025-12-05T16:35:11.209344",
        "meta_mean_motion": 14.64617594,
        "meta_eccentricity": 0.0094612,
        "meta_inclination": 74.0446,
        "meta_ra_of_asc_node": 213.4834,
        "meta_arg_of_pericenter": 309.9722,
        "meta_mean_anomaly": 49.3164,
        "meta_ephemeris_type": 0,
        "meta_classification_type": "U",
        "meta_norad_cat_id": 34619,
        "meta_element_set_no": 999,
        "meta_rev_at_epoch": 89195,
        "meta_bstar": 0.00046016774,
        "meta_mean_motion_dot": 2.577e-05,
        "meta_mean_motion_ddot": 0,
        "tle_line1": "1 34619U 93036WQ  25339.69110196  .00002577  00000+0  46017-3 0  9990",
        "tle_line2": "2 34619  74.0446 213.4834 0094612 309.9722  49.3164 14.64617594891955"
      },
      "geometry": {
        "type": "Point",
        "coordinates": [
          33.44195761718321,
          -5.1233847567651365
        ]
      }
    },
    {
      "type": "Feature",
      "properties": {
        "norad_id": 34620,
        "name": "COSMOS 2251 DEB",
        "group": "cosmos-2251-debris",
        "lat": 52.918274948486115,
        "lon": -106.50596204349763,
        "alt_km": 772.266362847824,
        "timestamp": "2025-12-06T11:28:11.457055+00:00",
        "meta_object_name": "COSMOS 2251 DEB",
        "meta_object_id": "1993-036WR",
        "meta_epoch": "2025-12-05T10:21:14.252544",
        "meta_mean_motion": 14.48908908,
        "meta_eccentricity": 0.00815576,
        "meta_inclination": 74.0518,
        "meta_ra_of_asc_node": 233.2218,
        "meta_arg_of_pericenter": 271.3281,
        "meta_mean_anomaly": 87.8536,
        "meta_ephemeris_type": 0,
        "meta_classification_type": "U",
        "meta_norad_cat_id": 34620,
        "meta_element_set_no": 999,
        "meta_rev_at_epoch": 86721,
        "meta_bstar": 0.0044015883,
        "meta_mean_motion_dot": 0.00017394,
        "meta_mean_motion_ddot": 0,
        "tle_line1": "1 34620U 93036WR  25339.43141496  .00017394  00000+0  44016-2 0  9990",
        "tle_line2": "2 34620  74.0518 233.2218 0081557 271.3281  87.8536 14.48908908867215"
      },
      "geometry": {
        "type": "Point",
        "coordinates": [
          -106.50596204349763,
          52.918274948486115
        ]
      }
    },
    {
      "type": "Feature",
      "properties": {
        "norad_id": 34622,
        "name": "COSMOS 2251 DEB",
        "group": "cosmos-2251-debris",
        "lat": -56.5845871067661,
        "lon": -67.4559079806135,
        "alt_km": 840.7351307720246,
        "timestamp": "2025-12-06T11:28:11.457065+00:00",
        "meta_object_name": "COSMOS 2251 DEB",
        "meta_object_id": "1993-036WT",
        "meta_epoch": "2025-12-05T22:22:45.744096",
        "meta_mean_motion": 14.21998296,
        "meta_eccentricity": 0.01040919,
        "meta_inclination": 74.0416,
        "meta_ra_of_asc_node": 319.2251,
        "meta_arg_of_pericenter": 43.3923,
        "meta_mean_anomaly": 346.4952,
        "meta_ephemeris_type": 0,
        "meta_classification_type": "U",
        "meta_norad_cat_id": 34622,
        "meta_element_set_no": 999,
        "meta_rev_at_epoch": 86363,
        "meta_bstar": 0.0017851503,
        "meta_mean_motion_dot": 4.145e-05,
        "meta_mean_motion_ddot": 0,
        "tle_line1": "1 34622U 93036WT  25339.93247389  .00004145  00000+0  17852-2 0  9993",
        "tle_line2": "2 34622  74.0416 319.2251 0104091  43.3923 346.4952 14.21998296863633"
      },
      "geometry": {
        "type": "Point",
        "coordinates": [
          -67.4559079806135,
          -56.5845871067661
        ]
      }
    },
    {
      "type": "Feature",
      "properties": {
        "norad_id": 34626,
        "name": "COSMOS 2251 DEB",
        "group": "cosmos-2251-debris",
        "lat": 69.58877825524048,
        "lon": 26.300735207870904,
        "alt_km": 629.1994443142903,
        "timestamp": "2025-12-06T11:28:11.457076+00:00",
        "meta_object_name": "COSMOS 2251 DEB",
        "meta_object_id": "1993-036WX",
        "meta_epoch": "2025-12-05T23:51:11.097216",
        "meta_mean_motion": 14.72070701,
        "meta_eccentricity": 0.00262518,
        "meta_inclination": 74.048,
        "meta_ra_of_asc_node": 337.0083,
        "meta_arg_of_pericenter": 67.3575,
        "meta_mean_anomaly": 325.6732,
        "meta_ephemeris_type": 0,
        "meta_classification_type": "U",
        "meta_norad_cat_id": 34626,
        "meta_element_set_no": 999,
        "meta_rev_at_epoch": 89045,
        "meta_bstar": 0.001484615,
        "meta_mean_motion_dot": 9.366e-05,
        "meta_mean_motion_ddot": 0,
        "tle_line1": "1 34626U 93036WX  25339.99387844  .00009366  00000+0  14846-2 0  9994",
        "tle_line2": "2 34626  74.0480 337.0083 0026251  67.3575 325.6732 14.72070701890452"
      },
      "geometry": {
        "type": "Point",
        "coordinates": [
          26.300735207870904,
          69.58877825524048
        ]
      }
    },
    {
      "type": "Feature",
      "properties": {
        "norad_id": 34634,
        "name": "COSMOS 2251 DEB",
        "group": "cosmos-2251-debris",
        "lat": -68.46863199999171,
        "lon": -86.72615800901137,
        "alt_km": 719.1908750412995,
        "timestamp": "2025-12-06T11:28:11.457086+00:00",
        "meta_object_name": "COSMOS 2251 DEB",
        "meta_object_id": "1993-036XF",
        "meta_epoch": "2025-12-05T04:45:24.046272",
        "meta_mean_motion": 14.55622098,
        "meta_eccentricity": 0.00446091,
        "meta_inclination": 74.0531,
        "meta_ra_of_asc_node": 49.2502,
        "meta_arg_of_pericenter": 158.7845,
        "meta_mean_anomaly": 232.7445,
        "meta_ephemeris_type": 0,
        "meta_classification_type": "U",
        "meta_norad_cat_id": 34634,
        "meta_element_set_no": 999,
        "meta_rev_at_epoch": 88672,
        "meta_bstar": 0.00076602662,
        "meta_mean_motion_dot": 3.361e-05,
        "meta_mean_motion_ddot": 0,
        "tle_line1": "1 34634U 93036XF  25339.19819498  .00003361  00000+0  76603-3 0  9999",
        "tle_line2": "2 34634  74.0531  49.2502 0044609 158.7845 232.7445 14.55622098886725"
      },
      "geometry": {
        "type": "Point",
        "coordinates": [
          -86.72615800901137,
          -68.46863199999171
        ]
      }
    }
  ]
}